[{"OBJECT_NAME":"OBJECT J","OBJECT_ID":"2024-092J","EPOCH":"2026-03-09T22:08:58.299072","MEAN_MOTION":14.31802287,"ECCENTRICITY":0.00130036,"INCLINATION":98.6556,"RA_OF_ASC_NODE":188.1438,"ARG_OF_PERICENTER":138.752,"MEAN_ANOMALY":221.4648,"EPHEMERIS_TYPE":0,"CLASSIFICATION_TYPE":"U","NORAD_CAT_ID":59781,"ELEMENT_SET_NO":999,"REV_AT_EPOCH":9469,"BSTAR":0.00013473254,"MEAN_MOTION_DOT":3.16e-6,"MEAN_MOTION_DDOT":0},{"OBJECT_NAME":"PSLV R\/B","OBJECT_ID":"1996-017B","EPOCH":"2026-03-09T22:53:22.945920","MEAN_MOTION":14.22663207,"ECCENTRICITY":0.0032506,"INCLINATION":99.0524,"RA_OF_ASC_NODE":83.1666,"ARG_OF_PERICENTER":278.6226,"MEAN_ANOMALY":81.1268,"EPHEMERIS_TYPE":0,"CLASSIFICATION_TYPE":"U","NORAD_CAT_ID":23828,"ELEMENT_SET_NO":999,"REV_AT_EPOCH":55497,"BSTAR":6.3681646e-5,"MEAN_MOTION_DOT":9.6e-7,"MEAN_MOTION_DDOT":0}]
